[{"OBJECT_NAME":"STARLINK-32605","OBJECT_ID":"2024-207K","EPOCH":"2025-10-07T10:05:05.297280","MEAN_MOTION":15.27595701,"ECCENTRICITY":0.00011655,"INCLINATION":42.9988,"RA_OF_ASC_NODE":67.1367,"ARG_OF_PERICENTER":280.8252,"MEAN_ANOMALY":79.2468,"EPHEMERIS_TYPE":0,"CLASSIFICATION_TYPE":"U","NORAD_CAT_ID":61921,"ELEMENT_SET_NO":999,"REV_AT_EPOCH":5128,"BSTAR":0.0012623093,"MEAN_MOTION_DOT":0.00034654,"MEAN_MOTION_DDOT":0},{"OBJECT_NAME":"STARLINK-32579","OBJECT_ID":"2024-207L","EPOCH":"2025-10-07T10:48:47.958912","MEAN_MOTION":15.27612594,"ECCENTRICITY":9.322e-5,"INCLINATION":42.9986,"RA_OF_ASC_NODE":70.832,"ARG_OF_PERICENTER":290.3121,"MEAN_ANOMALY":69.763,"EPHEMERIS_TYPE":0,"CLASSIFICATION_TYPE":"U","NORAD_CAT_ID":61922,"ELEMENT_SET_NO":999,"REV_AT_EPOCH":5124,"BSTAR":0.0012851998,"MEAN_MOTION_DOT":0.00035308,"MEAN_MOTION_DDOT":0},{"OBJECT_NAME":"STARLINK-32537","OBJECT_ID":"2024-207M","EPOCH":"2025-10-07T11:14:42.193824","MEAN_MOTION":15.27590363,"ECCENTRICITY":0.00012118,"INCLINATION":43.0055,"RA_OF_ASC_NODE":70.9618,"ARG_OF_PERICENTER":251.6987,"MEAN_ANOMALY":108.3733,"EPHEMERIS_TYPE":0,"CLASSIFICATION_TYPE":"U","NORAD_CAT_ID":61923,"ELEMENT_SET_NO":999,"REV_AT_EPOCH":5124,"BSTAR":0.0012192182,"MEAN_MOTION_DOT":0.00033451,"MEAN_MOTION_DDOT":0},{"OBJECT_NAME":"STARLINK-32564","OBJECT_ID":"2024-207N","EPOCH":"2025-10-07T11:05:27.234528","MEAN_MOTION":15.27591861,"ECCENTRICITY":0.00013467,"INCLINATION":42.9997,"RA_OF_ASC_NODE":70.9146,"ARG_OF_PERICENTER":267.7396,"MEAN_ANOMALY":92.3301,"EPHEMERIS_TYPE":0,"CLASSIFICATION_TYPE":"U","NORAD_CAT_ID":61924,"ELEMENT_SET_NO":999,"REV_AT_EPOCH":5124,"BSTAR":0.0010104444,"MEAN_MOTION_DOT":0.00027658,"MEAN_MOTION_DDOT":0},{"OBJECT_NAME":"STARLINK-32536","OBJECT_ID":"2024-207P","EPOCH":"2025-10-07T11:20:15.150048","MEAN_MOTION":15.27591101,"ECCENTRICITY":0.00020523,"INCLINATION":43.0041,"RA_OF_ASC_NODE":70.9898,"ARG_OF_PERICENTER":270.3103,"MEAN_ANOMALY":89.7514,"EPHEMERIS_TYPE":0,"CLASSIFICATION_TYPE":"U","NORAD_CAT_ID":61925,"ELEMENT_SET_NO":999,"REV_AT_EPOCH":5124,"BSTAR":0.0010099992,"MEAN_MOTION_DOT":0.00027645,"MEAN_MOTION_DDOT":0},{"OBJECT_NAME":"STARLINK-32624","OBJECT_ID":"2024-207Q","EPOCH":"2025-10-07T11:05:55.365504","MEAN_MOTION":15.27625038,"ECCENTRICITY":0.00027118,"INCLINATION":43.0088,"RA_OF_ASC_NODE":66.5935,"ARG_OF_PERICENTER":267.5849,"MEAN_ANOMALY":92.4692,"EPHEMERIS_TYPE":0,"CLASSIFICATION_TYPE":"U","NORAD_CAT_ID":61926,"ELEMENT_SET_NO":999,"REV_AT_EPOCH":5129,"BSTAR":0.0017807202,"MEAN_MOTION_DOT":0.00049136,"MEAN_MOTION_DDOT":0},{"OBJECT_NAME":"STARLINK-32622","OBJECT_ID":"2024-207R","EPOCH":"2025-10-07T11:17:02.441760","MEAN_MOTION":15.27577356,"ECCENTRICITY":0.00012186,"INCLINATION":43.0035,"RA_OF_ASC_NODE":66.6514,"ARG_OF_PERICENTER":255.3627,"MEAN_ANOMALY":104.7089,"EPHEMERIS_TYPE":0,"CLASSIFICATION_TYPE":"U","NORAD_CAT_ID":61927,"ELEMENT_SET_NO":999,"REV_AT_EPOCH":5129,"BSTAR":0.001337818,"MEAN_MOTION_DOT":0.00036732,"MEAN_MOTION_DDOT":0},{"OBJECT_NAME":"STARLINK-32620","OBJECT_ID":"2024-207S","EPOCH":"2025-10-07T10:25:26.577696","MEAN_MOTION":15.27608643,"ECCENTRICITY":1.923e-5,"INCLINATION":42.9973,"RA_OF_ASC_NODE":67.2432,"ARG_OF_PERICENTER":300.6103,"MEAN_ANOMALY":59.473,"EPHEMERIS_TYPE":0,"CLASSIFICATION_TYPE":"U","NORAD_CAT_ID":61928,"ELEMENT_SET_NO":999,"REV_AT_EPOCH":5128,"BSTAR":0.0013050502,"MEAN_MOTION_DOT":0.00035856,"MEAN_MOTION_DDOT":0},{"OBJECT_NAME":"STARLINK-32609","OBJECT_ID":"2024-207T","EPOCH":"2025-10-07T10:14:18.894048","MEAN_MOTION":15.27644514,"ECCENTRICITY":0.00014908,"INCLINATION":43.0006,"RA_OF_ASC_NODE":67.186,"ARG_OF_PERICENTER":273.3858,"MEAN_ANOMALY":86.6823,"EPHEMERIS_TYPE":0,"CLASSIFICATION_TYPE":"U","NORAD_CAT_ID":61929,"ELEMENT_SET_NO":999,"REV_AT_EPOCH":5128,"BSTAR":0.0017180593,"MEAN_MOTION_DOT":0.00047413,"MEAN_MOTION_DDOT":0},{"OBJECT_NAME":"STARLINK-32567","OBJECT_ID":"2024-207U","EPOCH":"2025-10-07T10:35:23.039232","MEAN_MOTION":15.27582946,"ECCENTRICITY":0.00016543,"INCLINATION":43.0048,"RA_OF_ASC_NODE":63.8232,"ARG_OF_PERICENTER":267.8584,"MEAN_ANOMALY":92.2078,"EPHEMERIS_TYPE":0,"CLASSIFICATION_TYPE":"U","NORAD_CAT_ID":61930,"ELEMENT_SET_NO":999,"REV_AT_EPOCH":5191,"BSTAR":0.00024414897,"MEAN_MOTION_DOT":6.463e-5,"MEAN_MOTION_DDOT":0},{"OBJECT_NAME":"STARLINK-32420","OBJECT_ID":"2024-207V","EPOCH":"2025-10-07T09:53:59.171424","MEAN_MOTION":15.27607671,"ECCENTRICITY":0.00011015,"INCLINATION":43.0007,"RA_OF_ASC_NODE":67.0771,"ARG_OF_PERICENTER":274.7191,"MEAN_ANOMALY":85.3535,"EPHEMERIS_TYPE":0,"CLASSIFICATION_TYPE":"U","NORAD_CAT_ID":61931,"ELEMENT_SET_NO":999,"REV_AT_EPOCH":5128,"BSTAR":0.0017990615,"MEAN_MOTION_DOT":0.0004962,"MEAN_MOTION_DDOT":0},{"OBJECT_NAME":"STARLINK-32354","OBJECT_ID":"2024-207W","EPOCH":"2025-10-07T10:59:54.135744","MEAN_MOTION":15.27600978,"ECCENTRICITY":0.0001292,"INCLINATION":43.0024,"RA_OF_ASC_NODE":70.8859,"ARG_OF_PERICENTER":279.1315,"MEAN_ANOMALY":80.9391,"EPHEMERIS_TYPE":0,"CLASSIFICATION_TYPE":"U","NORAD_CAT_ID":61932,"ELEMENT_SET_NO":999,"REV_AT_EPOCH":5173,"BSTAR":0.0010137683,"MEAN_MOTION_DOT":0.00027757,"MEAN_MOTION_DDOT":0},{"OBJECT_NAME":"STARLINK-32361","OBJECT_ID":"2024-207X","EPOCH":"2025-10-07T11:02:26.655072","MEAN_MOTION":15.27577774,"ECCENTRICITY":0.00012815,"INCLINATION":43.0026,"RA_OF_ASC_NODE":67.4194,"ARG_OF_PERICENTER":264.2047,"MEAN_ANOMALY":95.8659,"EPHEMERIS_TYPE":0,"CLASSIFICATION_TYPE":"U","NORAD_CAT_ID":61933,"ELEMENT_SET_NO":999,"REV_AT_EPOCH":5128,"BSTAR":0.0010434982,"MEAN_MOTION_DOT":0.00028562,"MEAN_MOTION_DDOT":0},{"OBJECT_NAME":"STARLINK-32500","OBJECT_ID":"2024-207Z","EPOCH":"2025-10-07T10:43:15.180672","MEAN_MOTION":15.27613752,"ECCENTRICITY":0.00029085,"INCLINATION":43.0033,"RA_OF_ASC_NODE":70.7951,"ARG_OF_PERICENTER":283.8488,"MEAN_ANOMALY":76.204,"EPHEMERIS_TYPE":0,"CLASSIFICATION_TYPE":"U","NORAD_CAT_ID":61935,"ELEMENT_SET_NO":999,"REV_AT_EPOCH":5124,"BSTAR":0.0016761134,"MEAN_MOTION_DOT":0.00046201,"MEAN_MOTION_DDOT":0},{"OBJECT_NAME":"STARLINK-11407 [DTC]","OBJECT_ID":"2024-209A","EPOCH":"2025-10-07T13:58:04.027584","MEAN_MOTION":15.69815803,"ECCENTRICITY":0.00014529,"INCLINATION":53.1568,"RA_OF_ASC_NODE":45.807,"ARG_OF_PERICENTER":108.13,"MEAN_ANOMALY":251.9876,"EPHEMERIS_TYPE":0,"CLASSIFICATION_TYPE":"U","NORAD_CAT_ID":61939,"ELEMENT_SET_NO":999,"REV_AT_EPOCH":5269,"BSTAR":0.0016294801,"MEAN_MOTION_DOT":0.00202603,"MEAN_MOTION_DDOT":0},{"OBJECT_NAME":"STARLINK-11337 [DTC]","OBJECT_ID":"2024-209B","EPOCH":"2025-10-07T12:19:19.307424","MEAN_MOTION":15.69774111,"ECCENTRICITY":0.00010974,"INCLINATION":53.1568,"RA_OF_ASC_NODE":46.0879,"ARG_OF_PERICENTER":44.4401,"MEAN_ANOMALY":315.6705,"EPHEMERIS_TYPE":0,"CLASSIFICATION_TYPE":"U","NORAD_CAT_ID":61940,"ELEMENT_SET_NO":999,"REV_AT_EPOCH":5266,"BSTAR":0.0013884788,"MEAN_MOTION_DOT":0.00171603,"MEAN_MOTION_DDOT":0},{"OBJECT_NAME":"STARLINK-11353 [DTC]","OBJECT_ID":"2024-209C","EPOCH":"2025-10-07T12:12:15.498144","MEAN_MOTION":15.69764648,"ECCENTRICITY":0.00010921,"INCLINATION":53.1574,"RA_OF_ASC_NODE":46.055,"ARG_OF_PERICENTER":55.7043,"MEAN_ANOMALY":304.4079,"EPHEMERIS_TYPE":0,"CLASSIFICATION_TYPE":"U","NORAD_CAT_ID":61941,"ELEMENT_SET_NO":999,"REV_AT_EPOCH":5262,"BSTAR":0.0011828409,"MEAN_MOTION_DOT":0.00145581,"MEAN_MOTION_DDOT":0},{"OBJECT_NAME":"STARLINK-11320 [DTC]","OBJECT_ID":"2024-209D","EPOCH":"2025-10-07T15:08:42.355392","MEAN_MOTION":15.69795803,"ECCENTRICITY":0.00011382,"INCLINATION":53.1568,"RA_OF_ASC_NODE":46.1276,"ARG_OF_PERICENTER":82.9178,"MEAN_ANOMALY":277.1969,"EPHEMERIS_TYPE":0,"CLASSIFICATION_TYPE":"U","NORAD_CAT_ID":61942,"ELEMENT_SET_NO":999,"REV_AT_EPOCH":5263,"BSTAR":0.00090319389,"MEAN_MOTION_DOT":0.00110697,"MEAN_MOTION_DDOT":0},{"OBJECT_NAME":"STARLINK-11425 [DTC]","OBJECT_ID":"2024-209E","EPOCH":"2025-10-07T15:01:38.771616","MEAN_MOTION":15.69799558,"ECCENTRICITY":0.00016303,"INCLINATION":53.1563,"RA_OF_ASC_NODE":46.0965,"ARG_OF_PERICENTER":20.7095,"MEAN_ANOMALY":339.3989,"EPHEMERIS_TYPE":0,"CLASSIFICATION_TYPE":"U","NORAD_CAT_ID":61943,"ELEMENT_SET_NO":999,"REV_AT_EPOCH":5263,"BSTAR":0.0019197443,"MEAN_MOTION_DOT":0.00239718,"MEAN_MOTION_DDOT":0},{"OBJECT_NAME":"STARLINK-11422 [DTC]","OBJECT_ID":"2024-209F","EPOCH":"2025-10-07T08:47:51.138240","MEAN_MOTION":15.69818416,"ECCENTRICITY":0.00011548,"INCLINATION":53.1576,"RA_OF_ASC_NODE":47.3192,"ARG_OF_PERICENTER":73.1005,"MEAN_ANOMALY":287.014,"EPHEMERIS_TYPE":0,"CLASSIFICATION_TYPE":"U","NORAD_CAT_ID":61944,"ELEMENT_SET_NO":999,"REV_AT_EPOCH":5259,"BSTAR":0.0023759802,"MEAN_MOTION_DOT":0.00299226,"MEAN_MOTION_DDOT":0},{"OBJECT_NAME":"STARLINK-11421 [DTC]","OBJECT_ID":"2024-209G","EPOCH":"2025-10-07T08:40:47.210592","MEAN_MOTION":15.69907768,"ECCENTRICITY":7.253e-5,"INCLINATION":53.1581,"RA_OF_ASC_NODE":47.2862,"ARG_OF_PERICENTER":132.9071,"MEAN_ANOMALY":227.2008,"EPHEMERIS_TYPE":0,"CLASSIFICATION_TYPE":"U","NORAD_CAT_ID":61945,"ELEMENT_SET_NO":999,"REV_AT_EPOCH":5259,"BSTAR":0.0034779154,"MEAN_MOTION_DOT":0.00448004,"MEAN_MOTION_DDOT":0},{"OBJECT_NAME":"STARLINK-11410 [DTC]","OBJECT_ID":"2024-209H","EPOCH":"2025-10-07T14:40:27.257376","MEAN_MOTION":15.69783879,"ECCENTRICITY":0.00011898,"INCLINATION":53.1573,"RA_OF_ASC_NODE":45.997,"ARG_OF_PERICENTER":47.759,"MEAN_ANOMALY":312.3528,"EPHEMERIS_TYPE":0,"CLASSIFICATION_TYPE":"U","NORAD_CAT_ID":61946,"ELEMENT_SET_NO":999,"REV_AT_EPOCH":5267,"BSTAR":0.0019947102,"MEAN_MOTION_DOT":0.00249229,"MEAN_MOTION_DDOT":0},{"OBJECT_NAME":"STARLINK-11390 [DTC]","OBJECT_ID":"2024-209J","EPOCH":"2025-10-07T14:33:23.442048","MEAN_MOTION":15.69755729,"ECCENTRICITY":0.00012684,"INCLINATION":53.1573,"RA_OF_ASC_NODE":45.9659,"ARG_OF_PERICENTER":66.1495,"MEAN_ANOMALY":293.9655,"EPHEMERIS_TYPE":0,"CLASSIFICATION_TYPE":"U","NORAD_CAT_ID":61947,"ELEMENT_SET_NO":999,"REV_AT_EPOCH":5267,"BSTAR":0.0019689614,"MEAN_MOTION_DOT":0.00245609,"MEAN_MOTION_DDOT":0}]
